{
    "links": {
        "self": "http://www.neowsapp.com/rest/v1/neo/3686283?api_key=iIulBulltgU6a56xZRHN4H3l9WmuAYTsLGpBGhQ2"
    },
    "id": "3686283",
    "neo_reference_id": "3686283",
    "name": "(2014 QP434)",
    "designation": "2014 QP434",
    "nasa_jpl_url": "http://ssd.jpl.nasa.gov/sbdb.cgi?sstr=3686283",
    "absolute_magnitude_h": 27.8,
    "estimated_diameter": {
        "kilometers": {
            "estimated_diameter_min": 0.0073207399,
            "estimated_diameter_max": 0.016369672
        },
        "meters": {
            "estimated_diameter_min": 7.3207398935,
            "estimated_diameter_max": 16.3696720474
        },
        "miles": {
            "estimated_diameter_min": 0.0045488955,
            "estimated_diameter_max": 0.0101716395
        },
        "feet": {
            "estimated_diameter_min": 24.0181762721,
            "estimated_diameter_max": 53.70627484
        }
    },
    "is_potentially_hazardous_asteroid": false,
    "close_approach_data": [
        {
            "close_approach_date": "2014-08-26",
            "close_approach_date_full": "2014-Aug-26 19:53",
            "epoch_date_close_approach": 1409082780000,
            "relative_velocity": {
                "kilometers_per_second": "10.2442654359",
                "kilometers_per_hour": "36879.3555691064",
                "miles_per_hour": "22915.3973534817"
            },
            "miss_distance": {
                "astronomical": "0.004417641",
                "lunar": "1.718462349",
                "kilometers": "660869.68402467",
                "miles": "410645.379773646"
            },
            "orbiting_body": "Moon"
        },
        {
            "close_approach_date": "2014-08-27",
            "close_approach_date_full": "2014-Aug-27 03:34",
            "epoch_date_close_approach": 1409110440000,
            "relative_velocity": {
                "kilometers_per_second": "9.6483079642",
                "kilometers_per_hour": "34733.9086711718",
                "miles_per_hour": "21582.3000851512"
            },
            "miss_distance": {
                "astronomical": "0.0031110194",
                "lunar": "1.2101865466",
                "kilometers": "465401.875768678",
                "miles": "289187.3158086364"
            },
            "orbiting_body": "Earth"
        }
    ],
    "orbital_data": {
        "orbit_id": "4",
        "orbit_determination_date": "2019-07-10 05:35:25",
        "first_observation_date": "2014-08-28",
        "last_observation_date": "2014-08-30",
        "data_arc_in_days": 2,
        "observations_used": 23,
        "orbit_uncertainty": "7",
        "minimum_orbit_intersection": ".00639535",
        "jupiter_tisserand_invariant": "3.246",
        "epoch_osculation": "2459000.5",
        "eccentricity": ".5875141180567043",
        "semi_major_axis": "2.42178150868842",
        "inclination": "6.492279286903472",
        "ascending_node_longitude": "334.9897268518147",
        "orbital_period": "1376.578128755501",
        "perihelion_distance": ".9989506814853082",
        "perihelion_argument": "341.1559144510605",
        "aphelion_distance": "3.844612335891532",
        "perihelion_time": "2459634.554682238160",
        "mean_anomaly": "194.1832687607087",
        "mean_motion": ".2615180297288748",
        "equinox": "J2000",
        "orbit_class": {
            "orbit_class_type": "APO",
            "orbit_class_description": "Near-Earth asteroid orbits which cross the Earth’s orbit similar to that of 1862 Apollo",
            "orbit_class_range": "a (semi-major axis) > 1.0 AU; q (perihelion) < 1.017 AU"
        }
    },
    "is_sentry_object": false
}